{
  "type": "FeatureCollection",
  "features": [
    {
      "type": "Feature",
      "properties": {
        "norad_id": 66480,
        "name": "STARLINK-35670",
        "group": "last-30-days",
        "lat": 29.909712340568266,
        "lon": -99.36322836044597,
        "alt_km": 399.0492518445126,
        "timestamp": "2025-12-04T13:51:59.226932+00:00",
        "meta_object_name": "STARLINK-35670",
        "meta_object_id": "2025-262AA",
        "meta_epoch": "2025-12-04T08:00:01.999872",
        "meta_mean_motion": 15.55858763,
        "meta_eccentricity": 0.0001215,
        "meta_inclination": 42.9996,
        "meta_ra_of_asc_node": 120.1985,
        "meta_arg_of_pericenter": 263.9008,
        "meta_mean_anomaly": 298.9362,
        "meta_ephemeris_type": 0,
        "meta_classification_type": "U",
        "meta_norad_cat_id": 66480,
        "meta_element_set_no": 999,
        "meta_rev_at_epoch": 428,
        "meta_bstar": -0.033921813,
        "meta_mean_motion_dot": -0.02139634,
        "meta_mean_motion_ddot": 0,
        "tle_line1": "1 66480U 25262AA  25338.33335648 -.02139634  00000+0 -33922-1 0  9996",
        "tle_line2": "2 66480  42.9996 120.1985 0001215 263.9008 298.9362 15.55858763  4284"
      },
      "geometry": {
        "type": "Point",
        "coordinates": [
          -99.36322836044597,
          29.909712340568266
        ]
      }
    },
    {
      "type": "Feature",
      "properties": {
        "norad_id": 66481,
        "name": "STARLINK-35698",
        "group": "last-30-days",
        "lat": 28.86764820434757,
        "lon": -97.51941915283577,
        "alt_km": 399.230902129445,
        "timestamp": "2025-12-04T13:51:59.226957+00:00",
        "meta_object_name": "STARLINK-35698",
        "meta_object_id": "2025-262AB",
        "meta_epoch": "2025-12-04T08:00:01.999872",
        "meta_mean_motion": 15.55859009,
        "meta_eccentricity": 0.00012477,
        "meta_inclination": 42.9994,
        "meta_ra_of_asc_node": 120.1932,
        "meta_arg_of_pericenter": 265.351,
        "meta_mean_anomaly": 299.4032,
        "meta_ephemeris_type": 0,
        "meta_classification_type": "U",
        "meta_norad_cat_id": 66481,
        "meta_element_set_no": 999,
        "meta_rev_at_epoch": 428,
        "meta_bstar": -0.033951191,
        "meta_mean_motion_dot": -0.02141318,
        "meta_mean_motion_ddot": 0,
        "tle_line1": "1 66481U 25262AB  25338.33335648 -.02141318  00000+0 -33951-1 0  9991",
        "tle_line2": "2 66481  42.9994 120.1932 0001247 265.3510 299.4032 15.55859009  4288"
      },
      "geometry": {
        "type": "Point",
        "coordinates": [
          -97.51941915283577,
          28.86764820434757
        ]
      }
    },
    {
      "type": "Feature",
      "properties": {
        "norad_id": 66482,
        "name": "STARLINK-35648",
        "group": "last-30-days",
        "lat": 27.800938373167945,
        "lon": -95.71216478563632,
        "alt_km": 399.40808009078046,
        "timestamp": "2025-12-04T13:51:59.226970+00:00",
        "meta_object_name": "STARLINK-35648",
        "meta_object_id": "2025-262AC",
        "meta_epoch": "2025-12-04T08:00:01.999872",
        "meta_mean_motion": 15.5585865,
        "meta_eccentricity": 0.00012555,
        "meta_inclination": 42.9992,
        "meta_ra_of_asc_node": 120.1886,
        "meta_arg_of_pericenter": 267.1203,
        "meta_mean_anomaly": 299.5507,
        "meta_ephemeris_type": 0,
        "meta_classification_type": "U",
        "meta_norad_cat_id": 66482,
        "meta_element_set_no": 999,
        "meta_rev_at_epoch": 413,
        "meta_bstar": -0.033942164,
        "meta_mean_motion_dot": -0.02140793,
        "meta_mean_motion_ddot": 0,
        "tle_line1": "1 66482U 25262AC  25338.33335648 -.02140793  00000+0 -33942-1 0  9998",
        "tle_line2": "2 66482  42.9992 120.1886 0001255 267.1203 299.5507 15.55858650  4136"
      },
      "geometry": {
        "type": "Point",
        "coordinates": [
          -95.71216478563632,
          27.800938373167945
        ]
      }
    },
    {
      "type": "Feature",
      "properties": {
        "norad_id": 66483,
        "name": "STARLINK-35654",
        "group": "last-30-days",
        "lat": 26.710436038923163,
        "lon": -93.9401814936924,
        "alt_km": 399.4562159518546,
        "timestamp": "2025-12-04T13:51:59.226980+00:00",
        "meta_object_name": "STARLINK-35654",
        "meta_object_id": "2025-262AD",
        "meta_epoch": "2025-12-04T08:00:01.999872",
        "meta_mean_motion": 15.55857345,
        "meta_eccentricity": 0.00011731,
        "meta_inclination": 42.9994,
        "meta_ra_of_asc_node": 120.1828,
        "meta_arg_of_pericenter": 262.4641,
        "meta_mean_anomaly": 306.1264,
        "meta_ephemeris_type": 0,
        "meta_classification_type": "U",
        "meta_norad_cat_id": 66483,
        "meta_element_set_no": 999,
        "meta_rev_at_epoch": 428,
        "meta_bstar": -0.033923225,
        "meta_mean_motion_dot": -0.02139584,
        "meta_mean_motion_ddot": 0,
        "tle_line1": "1 66483U 25262AD  25338.33335648 -.02139584  00000+0 -33923-1 0  9994",
        "tle_line2": "2 66483  42.9994 120.1828 0001173 262.4641 306.1264 15.55857345  4289"
      },
      "geometry": {
        "type": "Point",
        "coordinates": [
          -93.9401814936924,
          26.710436038923163
        ]
      }
    },
    {
      "type": "Feature",
      "properties": {
        "norad_id": 66484,
        "name": "STARLINK-35371",
        "group": "last-30-days",
        "lat": 25.59926623099611,
        "lon": -92.20163100488827,
        "alt_km": 399.6099253561606,
        "timestamp": "2025-12-04T13:51:59.226990+00:00",
        "meta_object_name": "STARLINK-35371",
        "meta_object_id": "2025-262AE",
        "meta_epoch": "2025-12-04T08:00:01.999872",
        "meta_mean_motion": 15.55859316,
        "meta_eccentricity": 0.00011446,
        "meta_inclination": 42.9995,
        "meta_ra_of_asc_node": 120.1794,
        "meta_arg_of_pericenter": 263.5014,
        "meta_mean_anomaly": 307.0036,
        "meta_ephemeris_type": 0,
        "meta_classification_type": "U",
        "meta_norad_cat_id": 66484,
        "meta_element_set_no": 999,
        "meta_rev_at_epoch": 428,
        "meta_bstar": -0.033929932,
        "meta_mean_motion_dot": -0.02140081,
        "meta_mean_motion_ddot": 0,
        "tle_line1": "1 66484U 25262AE  25338.33335648 -.02140081  00000+0 -33930-1 0  9997",
        "tle_line2": "2 66484  42.9995 120.1794 0001144 263.5014 307.0036 15.55859316  4284"
      },
      "geometry": {
        "type": "Point",
        "coordinates": [
          -92.20163100488827,
          25.59926623099611
        ]
      }
    },
    {
      "type": "Feature",
      "properties": {
        "norad_id": 66485,
        "name": "STARLINK-34774",
        "group": "last-30-days",
        "lat": -42.29744293368865,
        "lon": 95.63112883010658,
        "alt_km": 370.3519537915017,
        "timestamp": "2025-12-04T13:51:59.227000+00:00",
        "meta_object_name": "STARLINK-34774",
        "meta_object_id": "2025-263A",
        "meta_epoch": "2025-12-04T08:00:01.999872",
        "meta_mean_motion": 15.67830112,
        "meta_eccentricity": 0.0001706,
        "meta_inclination": 42.9992,
        "meta_ra_of_asc_node": 174.6324,
        "meta_arg_of_pericenter": 266.0273,
        "meta_mean_anomaly": 72.4563,
        "meta_ephemeris_type": 0,
        "meta_classification_type": "U",
        "meta_norad_cat_id": 66485,
        "meta_element_set_no": 999,
        "meta_rev_at_epoch": 428,
        "meta_bstar": -0.019747044,
        "meta_mean_motion_dot": -0.01973634,
        "meta_mean_motion_ddot": 0,
        "tle_line1": "1 66485U 25263A   25338.33335648 -.01973634  00000+0 -19747-1 0  9996",
        "tle_line2": "2 66485  42.9992 174.6324 0001706 266.0273  72.4563 15.67830112  4288"
      },
      "geometry": {
        "type": "Point",
        "coordinates": [
          95.63112883010658,
          -42.29744293368865
        ]
      }
    },
    {
      "type": "Feature",
      "properties": {
        "norad_id": 66486,
        "name": "STARLINK-34844",
        "group": "last-30-days",
        "lat": -41.987822154543856,
        "lon": 98.1720419677662,
        "alt_km": 370.3608010537664,
        "timestamp": "2025-12-04T13:51:59.227013+00:00",
        "meta_object_name": "STARLINK-34844",
        "meta_object_id": "2025-263B",
        "meta_epoch": "2025-12-04T08:00:01.999872",
        "meta_mean_motion": 15.67844649,
        "meta_eccentricity": 0.00016831,
        "meta_inclination": 42.9994,
        "meta_ra_of_asc_node": 174.6266,
        "meta_arg_of_pericenter": 264.0721,
        "meta_mean_anomaly": 76.3178,
        "meta_ephemeris_type": 0,
        "meta_classification_type": "U",
        "meta_norad_cat_id": 66486,
        "meta_element_set_no": 999,
        "meta_rev_at_epoch": 423,
        "meta_bstar": -0.019906092,
        "meta_mean_motion_dot": -0.01988661,
        "meta_mean_motion_ddot": 0,
        "tle_line1": "1 66486U 25263B   25338.33335648 -.01988661  00000+0 -19906-1 0  9990",
        "tle_line2": "2 66486  42.9994 174.6266 0001683 264.0721  76.3178 15.67844649  4236"
      },
      "geometry": {
        "type": "Point",
        "coordinates": [
          98.1720419677662,
          -41.987822154543856
        ]
      }
    }
  ]
}